TIANMU-1 21             
1 58662U 23208C   26160.16428815  .00008224  00000+0  24499-3 0  9998
2 58662  97.4492 279.6977 0006607 356.8360   3.2840 15.34933496136331
TIANMU-1 22             
1 58663U 23208D   26160.22968639  .00006383  00000+0  21605-3 0  9999
2 58663  97.4488 276.4330 0003972  31.1168 329.0308 15.30945829136119
TIANMU-1 15             
1 58700U 24004A   26160.16942845  .00004779  00000+0  18341-3 0  9990
2 58700  97.4673 346.3591 0007497  29.3246 330.8412 15.26939822134558
TIANMU-1 16             
1 58701U 24004B   26160.22276466  .00004736  00000+0  18331-3 0  9999
2 58701  97.4620 345.6583 0006616  33.8863 326.2797 15.26665718134567
TIANMU-1 17             
1 58702U 24004C   26160.20821443  .00004779  00000+0  18495-3 0  9997
2 58702  97.4648 346.1257 0006294  39.7614 320.4085 15.26665264134554
TIANMU-1 18             
1 58703U 24004D   26160.18595020  .00004798  00000+0  18428-3 0  9991
2 58703  97.4665 346.3539 0004779  39.4719 320.6867 15.26923899134559
INSAT-3DS               
1 58990U 24033A   26160.07293722 -.00000140  00000+0  00000+0 0  9994
2 58990   0.0151 152.7656 0001230 281.1643 291.8663  1.00272939 46988
METEOR-M2 4             
1 59051U 24039A   26160.16443845  .00000021  00000+0  29139-4 0  9998
2 59051  98.7007 119.5635 0006809 183.9003 176.2123 14.22428777118129
GOES 19                 
1 60133U 24119A   26160.11311044 -.00000232  00000+0  00000+0 0  9996
2 60133   0.0258 161.6822 0000463 343.9728  77.3734  1.00272054  6889
MTG-S1                  
1 64723U 25143A   26160.16850193 -.00000015  00000+0  00000+0 0  9990
2 64723   0.6105 337.0829 0001025  26.6988 310.9500  1.00271614  3334
METOP-SGA1              
1 65159U 25172A   26160.18496220  .00000033  00000+0  34760-4 0  9999
2 65159  98.6646 220.0586 0000931  88.3365 271.7919 14.21508488 42650
FENGYUN 3H              
1 65815U 25219A   26160.07837038  .00000052  00000+0  45008-4 0  9992
2 65815  98.6766 101.0053 0001636  83.0068 277.1294 14.19919056 36231
