OBJECT_NAME,OBJECT_ID,EPOCH,MEAN_MOTION,ECCENTRICITY,INCLINATION,RA_OF_ASC_NODE,ARG_OF_PERICENTER,MEAN_ANOMALY,EPHEMERIS_TYPE,CLASSIFICATION_TYPE,NORAD_CAT_ID,ELEMENT_SET_NO,REV_AT_EPOCH,BSTAR,MEAN_MOTION_DOT,MEAN_MOTION_DDOT
TIANMU-1 21,2023-208C,2026-06-09T03:56:34.496160,15.34933496,.0006607,97.4492,279.6977,356.8360,3.2840,0,U,58662,999,13633,.24499E-3,.8224E-4,0
TIANMU-1 22,2023-208D,2026-06-09T05:30:44.904096,15.30945829,.0003972,97.4488,276.4330,31.1168,329.0308,0,U,58663,999,13611,.21605E-3,.6383E-4,0
TIANMU-1 15,2024-004A,2026-06-09T04:03:58.618080,15.26939822,.0007497,97.4673,346.3591,29.3246,330.8412,0,U,58700,999,13455,.18341E-3,.4779E-4,0
TIANMU-1 16,2024-004B,2026-06-09T05:20:46.866624,15.26665718,.0006616,97.4620,345.6583,33.8863,326.2797,0,U,58701,999,13456,.18331E-3,.4736E-4,0
TIANMU-1 17,2024-004C,2026-06-09T04:59:49.726752,15.26665264,.0006294,97.4648,346.1257,39.7614,320.4085,0,U,58702,999,13455,.18495E-3,.4779E-4,0
TIANMU-1 18,2024-004D,2026-06-09T04:27:46.097280,15.26923899,.0004779,97.4665,346.3539,39.4719,320.6867,0,U,58703,999,13455,.18428E-3,.4798E-4,0
INSAT-3DS,2024-033A,2026-06-09T01:45:01.775808,1.00272939,.000123,0.0151,152.7656,281.1643,291.8663,0,U,58990,999,4698,0,-.14E-5,0
METEOR-M2 4,2024-039A,2026-06-09T03:56:47.482080,14.22428777,.0006809,98.7007,119.5635,183.9003,176.2123,0,U,59051,999,11812,.29139E-4,.21E-6,0
GOES 19,2024-119A,2026-06-09T02:42:52.742016,1.00272054,.0000463,0.0258,161.6822,343.9728,77.3734,0,U,60133,999,688,0,-.232E-5,0
MTG-S1,2025-143A,2026-06-09T04:02:38.566752,1.00271614,.0001025,0.6105,337.0829,26.6988,310.9500,0,U,64723,999,333,0,-.15E-6,0
METOP-SGA1,2025-172A,2026-06-09T04:26:20.734080,14.21508488,.0000931,98.6646,220.0586,88.3365,271.7919,0,U,65159,999,4265,.3476E-4,.33E-6,0
FENGYUN 3H,2025-219A,2026-06-09T01:52:51.200832,14.19919056,.0001636,98.6766,101.0053,83.0068,277.1294,0,U,65815,999,3623,.45008E-4,.52E-6,0
